start=new Date('2022-11-18T00:00:00.000Z').valueOf();
sats=[{"FILE":"3661693","EPOCH":"2022-11-17T01:39:49.821696","REF_FRAME":"TEME","APOAPSIS":"548.474","GP_ID":"218065324","OBJECT_TYPE":"PAYLOAD","CLASSIFICATION_TYPE":"U","TLE_LINE1":"1 48452U 21040AA  22321.06932664  .00000277  00000-0  37496-4 0  9995","ELEMENT_SET_NO":"999","EPHEMERIS_TYPE":"0","MEAN_ANOMALY":"300.9859","ECCENTRICITY":"0.00018170","RA_OF_ASC_NODE":"207.3053","MEAN_ELEMENT_THEORY":"SGP4","MEAN_MOTION_DDOT":"0.0000000000000","INCLINATION":"53.0546","DECAY_DATE":null,"LAUNCH_DATE":"2021-05-09","TIME_SYSTEM":"UTC","CENTER_NAME":"EARTH","MEAN_MOTION_DOT":"0.00000277","COUNTRY_CODE":"US","SEMIMAJOR_AXIS":"6925.351","RCS_SIZE":"LARGE","PERIAPSIS":"545.957","OBJECT_NAME":"STARLINK-2703","SITE":"AFETR","OBJECT_ID":"2021-040AA","ARG_OF_PERICENTER":"59.1309","PERIOD":"95.592","NORAD_CAT_ID":"48452","MEAN_MOTION":"15.06399275","BSTAR":"0.00003749600000","TLE_LINE2":"2 48452  53.0546 207.3053 0001817  59.1309 300.9859 15.06399275 84465","REV_AT_EPOCH":"8446"},{"BSTAR":"0.00014977000000","NORAD_CAT_ID":"48453","MEAN_MOTION":"15.06403955","PERIOD":"95.592","OBJECT_NAME":"STARLINK-2620","SITE":"AFETR","OBJECT_ID":"2021-040AB","ARG_OF_PERICENTER":"48.6262","REV_AT_EPOCH":"8446","TLE_LINE2":"2 48453  53.0544 207.3594 0001733  48.6262 311.4876 15.06403955 84469","CLASSIFICATION_TYPE":"U","TLE_LINE1":"1 48453U 21040AB  22321.06564121  .00001950  00000-0  14977-3 0  9992","ELEMENT_SET_NO":"999","EPHEMERIS_TYPE":"0","MEAN_ANOMALY":"311.4876","ECCENTRICITY":"0.00017330","REF_FRAME":"TEME","APOAPSIS":"548.402","GP_ID":"218063591","OBJECT_TYPE":"PAYLOAD","FILE":"3661693","EPOCH":"2022-11-17T01:34:31.400544","RCS_SIZE":"LARGE","PERIAPSIS":"546.001","DECAY_DATE":null,"LAUNCH_DATE":"2021-05-09","CENTER_NAME":"EARTH","TIME_SYSTEM":"UTC","MEAN_MOTION_DOT":"0.00001950","COUNTRY_CODE":"US","SEMIMAJOR_AXIS":"6925.336","MEAN_MOTION_DDOT":"0.0000000000000","INCLINATION":"53.0544","RA_OF_ASC_NODE":"207.3594","MEAN_ELEMENT_THEORY":"SGP4"},{"MEAN_MOTION":"15.06398591","NORAD_CAT_ID":"48454","BSTAR":"-0.00000607810000","OBJECT_ID":"2021-040AC","ARG_OF_PERICENTER":"63.3797","OBJECT_NAME":"STARLINK-2654","SITE":"AFETR","PERIOD":"95.592","TLE_LINE2":"2 48454  53.0531 207.0620 0001631  63.3797 296.7359 15.06398591 84478","REV_AT_EPOCH":"8447","MEAN_ANOMALY":"296.7359","ECCENTRICITY":"0.00016310","TLE_LINE1":"1 48454U 21040AC  22321.12831059 -.00000372  00000-0 -60781-5 0  9992","ELEMENT_SET_NO":"999","CLASSIFICATION_TYPE":"U","EPHEMERIS_TYPE":"0","EPOCH":"2022-11-17T03:04:46.034976","FILE":"3661693","APOAPSIS":"548.347","GP_ID":"218063841","OBJECT_TYPE":"PAYLOAD","REF_FRAME":"TEME","MEAN_MOTION_DOT":"-0.00000372","COUNTRY_CODE":"US","SEMIMAJOR_AXIS":"6925.353","TIME_SYSTEM":"UTC","DECAY_DATE":null,"LAUNCH_DATE":"2021-05-09","CENTER_NAME":"EARTH","PERIAPSIS":"546.088","RCS_SIZE":"LARGE","MEAN_ELEMENT_THEORY":"SGP4","RA_OF_ASC_NODE":"207.0620","MEAN_MOTION_DDOT":"0.0000000000000","INCLINATION":"53.0531"},{"GP_ID":"218094767","APOAPSIS":"548.623","OBJECT_TYPE":"PAYLOAD","REF_FRAME":"TEME","EPOCH":"2022-11-17T18:54:51.035616","FILE":"3661914","MEAN_ANOMALY":"307.5341","ECCENTRICITY":"0.00020190","TLE_LINE1":"1 48455U 21040AD  22321.78809069 -.00001010  00000-0 -48910-4 0  9990","ELEMENT_SET_NO":"999","CLASSIFICATION_TYPE":"U","EPHEMERIS_TYPE":"0","MEAN_MOTION_DDOT":"0.0000000000000","INCLINATION":"53.0549","MEAN_ELEMENT_THEORY":"SGP4","RA_OF_ASC_NODE":"204.1081","PERIAPSIS":"545.826","RCS_SIZE":"LARGE","MEAN_MOTION_DOT":"-0.00001010","COUNTRY_CODE":"US","SEMIMAJOR_AXIS":"6925.359","LAUNCH_DATE":"2021-05-09","DECAY_DATE":null,"CENTER_NAME":"EARTH","TIME_SYSTEM":"UTC","PERIOD":"95.592","OBJECT_ID":"2021-040AD","ARG_OF_PERICENTER":"52.5832","OBJECT_NAME":"STARLINK-2497","SITE":"AFETR","BSTAR":"-0.00004891000000","MEAN_MOTION":"15.06396455","NORAD_CAT_ID":"48455","REV_AT_EPOCH":"8456","TLE_LINE2":"2 48455  53.0549 204.1081 0002019  52.5832 307.5341 15.06396455 84567"},{"FILE":"3661693","EPOCH":"2022-11-17T02:54:08.427168","REF_FRAME":"TEME","APOAPSIS":"548.504","GP_ID":"218064825","OBJECT_TYPE":"PAYLOAD","CLASSIFICATION_TYPE":"U","TLE_LINE1":"1 48456U 21040AE  22321.12093087 -.00000127  00000-0  10381-4 0  9992","ELEMENT_SET_NO":"999","EPHEMERIS_TYPE":"0","MEAN_ANOMALY":"310.8610","ECCENTRICITY":"0.00018680","RA_OF_ASC_NODE":"207.1016","MEAN_ELEMENT_THEORY":"SGP4","MEAN_MOTION_DDOT":"0.0000000000000","INCLINATION":"53.0530","CENTER_NAME":"EARTH","DECAY_DATE":null,"LAUNCH_DATE":"2021-05-09","TIME_SYSTEM":"UTC","MEAN_MOTION_DOT":"-0.00000127","COUNTRY_CODE":"US","SEMIMAJOR_AXIS":"6925.345","RCS_SIZE":"LARGE","PERIAPSIS":"545.916","OBJECT_NAME":"STARLINK-2508","SITE":"AFETR","OBJECT_ID":"2021-040AE","ARG_OF_PERICENTER":"49.2541","PERIOD":"95.592","NORAD_CAT_ID":"48456","MEAN_MOTION":"15.06401116","BSTAR":"0.00001038100000","REV_AT_EPOCH":"8446","TLE_LINE2":"2 48456  53.0530 207.1016 0001868  49.2541 310.8610 15.06401116 84466"},{"PERIAPSIS":"545.868","RCS_SIZE":"LARGE","MEAN_MOTION_DOT":"0.00000503","COUNTRY_CODE":"US","SEMIMAJOR_AXIS":"6925.339","LAUNCH_DATE":"2021-05-09","DECAY_DATE":null,"CENTER_NAME":"EARTH","TIME_SYSTEM":"UTC","MEAN_MOTION_DDOT":"0.0000000000000","INCLINATION":"53.0541","MEAN_ELEMENT_THEORY":"SGP4","RA_OF_ASC_NODE":"210.9424","MEAN_ANOMALY":"297.6312","ECCENTRICITY":"0.00019300","ELEMENT_SET_NO":"999","TLE_LINE1":"1 48458U 21040AG  22321.39877379  .00000503  00000-0  52661-4 0  9991","CLASSIFICATION_TYPE":"U","EPHEMERIS_TYPE":"0","GP_ID":"218064091","APOAPSIS":"548.541","OBJECT_TYPE":"PAYLOAD","REF_FRAME":"TEME","EPOCH":"2022-11-17T09:34:14.055456","FILE":"3661693","TLE_LINE2":"2 48458  53.0541 210.9424 0001930  62.4873 297.6312 15.06402964 85150","REV_AT_EPOCH":"8515","BSTAR":"0.00005266100000","MEAN_MOTION":"15.06402964","NORAD_CAT_ID":"48458","PERIOD":"95.592","OBJECT_ID":"2021-040AG","ARG_OF_PERICENTER":"62.4873","OBJECT_NAME":"STARLINK-2698","SITE":"AFETR"},{"TLE_LINE1":"1 48459U 21040AH  22321.12604602 -.00001015  00000-0 -49245-4 0  9995","CLASSIFICATION_TYPE":"U","ELEMENT_SET_NO":"999","EPHEMERIS_TYPE":"0","ECCENTRICITY":"0.00024160","MEAN_ANOMALY":"320.6860","FILE":"3661693","EPOCH":"2022-11-17T03:01:30.376128","REF_FRAME":"TEME","APOAPSIS":"548.904","GP_ID":"218064341","OBJECT_TYPE":"PAYLOAD","DECAY_DATE":null,"LAUNCH_DATE":"2021-05-09","TIME_SYSTEM":"UTC","CENTER_NAME":"EARTH","MEAN_MOTION_DOT":"-0.00001015","COUNTRY_CODE":"US","SEMIMAJOR_AXIS":"6925.365","RCS_SIZE":"LARGE","PERIAPSIS":"545.557","RA_OF_ASC_NODE":"212.4309","MEAN_ELEMENT_THEORY":"SGP4","MEAN_MOTION_DDOT":"0.0000000000000","INCLINATION":"53.0537","NORAD_CAT_ID":"48459","MEAN_MOTION":"15.06394505","BSTAR":"-0.00004924500000","OBJECT_NAME":"STARLINK-2579","SITE":"AFETR","OBJECT_ID":"2021-040AH","ARG_OF_PERICENTER":"39.4304","PERIOD":"95.592","TLE_LINE2":"2 48459  53.0537 212.4309 0002416  39.4304 320.6860 15.06394505 84401","REV_AT_EPOCH":"8440"},{"NORAD_CAT_ID":"48460","MEAN_MOTION":"15.06406795","BSTAR":"0.00006596300000","OBJECT_NAME":"STARLINK-2582","SITE":"AFETR","OBJECT_ID":"2021-040AJ","ARG_OF_PERICENTER":"54.6206","PERIOD":"95.592","REV_AT_EPOCH":"8495","TLE_LINE2":"2 48460  53.0549 210.8109 0001908  54.6206 305.4961 15.06406795 84959","CLASSIFICATION_TYPE":"U","TLE_LINE1":"1 48460U 21040AJ  22321.40981576  .00000701  00000-0  65963-4 0  9990","ELEMENT_SET_NO":"999","EPHEMERIS_TYPE":"0","ECCENTRICITY":"0.00019080","MEAN_ANOMALY":"305.4961","FILE":"3661693","EPOCH":"2022-11-17T09:50:08.081664","REF_FRAME":"TEME","APOAPSIS":"548.514","GP_ID":"218065093","OBJECT_TYPE":"PAYLOAD","DECAY_DATE":null,"LAUNCH_DATE":"2021-05-09","TIME_SYSTEM":"UTC","CENTER_NAME":"EARTH","MEAN_MOTION_DOT":"0.00000701","COUNTRY_CODE":"US","SEMIMAJOR_AXIS":"6925.328","RCS_SIZE":"LARGE","PERIAPSIS":"545.871","RA_OF_ASC_NODE":"210.8109","MEAN_ELEMENT_THEORY":"SGP4","MEAN_MOTION_DDOT":"0.0000000000000","INCLINATION":"53.0549"},{"TLE_LINE2":"2 48461  53.0542 210.7465 0001594  66.2347 293.8808 15.06400162 84450","REV_AT_EPOCH":"8445","NORAD_CAT_ID":"48461","MEAN_MOTION":"15.06400162","BSTAR":"0.00005673100000","OBJECT_NAME":"STARLINK-2693","SITE":"AFETR","OBJECT_ID":"2021-040AK","ARG_OF_PERICENTER":"66.2347","PERIOD":"95.592","LAUNCH_DATE":"2021-05-09","DECAY_DATE":null,"TIME_SYSTEM":"UTC","CENTER_NAME":"EARTH","MEAN_MOTION_DOT":"0.00000564","COUNTRY_CODE":"US","SEMIMAJOR_AXIS":"6925.348","RCS_SIZE":"LARGE","PERIAPSIS":"546.109","RA_OF_ASC_NODE":"210.7465","MEAN_ELEMENT_THEORY":"SGP4","MEAN_MOTION_DDOT":"0.0000000000000","INCLINATION":"53.0542","ELEMENT_SET_NO":"999","TLE_LINE1":"1 48461U 21040AK  22321.42456878  .00000564  00000-0  56731-4 0  9995","CLASSIFICATION_TYPE":"U","EPHEMERIS_TYPE":"0","ECCENTRICITY":"0.00015940","MEAN_ANOMALY":"293.8808","FILE":"3661693","EPOCH":"2022-11-17T10:11:22.742592","REF_FRAME":"TEME","GP_ID":"218065325","APOAPSIS":"548.317","OBJECT_TYPE":"PAYLOAD"},{"OBJECT_TYPE":"PAYLOAD","APOAPSIS":"548.229","GP_ID":"218063592","REF_FRAME":"TEME","EPOCH":"2022-11-17T03:24:42.484896","FILE":"3661693","ECCENTRICITY":"0.00014860","MEAN_ANOMALY":"295.3696","EPHEMERIS_TYPE":"0","TLE_LINE1":"1 48462U 21040AL  22321.14215839  .00002872  00000-0  21160-3 0  9996","CLASSIFICATION_TYPE":"U","ELEMENT_SET_NO":"999","INCLINATION":"53.0545","MEAN_MOTION_DDOT":"0.0000000000000","MEAN_ELEMENT_THEORY":"SGP4","RA_OF_ASC_NODE":"217.2776","PERIAPSIS":"546.171","RCS_SIZE":"LARGE","SEMIMAJOR_AXIS":"6925.335","COUNTRY_CODE":"US","MEAN_MOTION_DOT":"0.00002872","DECAY_DATE":null,"CENTER_NAME":"EARTH","LAUNCH_DATE":"2021-05-09","TIME_SYSTEM":"UTC","PERIOD":"95.592","ARG_OF_PERICENTER":"64.7446","OBJECT_ID":"2021-040AL","SITE":"AFETR","OBJECT_NAME":"STARLINK-2683","BSTAR":"0.00021160000000","MEAN_MOTION":"15.06404508","NORAD_CAT_ID":"48462","REV_AT_EPOCH":"8433","TLE_LINE2":"2 48462  53.0545 217.2776 0001486  64.7446 295.3696 15.06404508 84331"}];
